EPOCH,INCLINATION,ECCENTRICITY,BSTAR,TLE_LINE1,TLE_LINE2
2026-04-01T22:10:42.564000,97.6207,0.00193384,0.00164653580000,1 64157U 25112M   26091.92410375  .00021387  00000-0  16465-2 0  9998,2 64157  97.6207 144.4237 0019338 164.1075 196.0760 15.01529898 46804
2026-04-01T20:34:44.817888,97.6208,0.00193420,0.00166680000000,1 64157U 25112M   26091.85746317  .00021650  00000-0  16668-2 0  9996,2 64157  97.6208 144.3582 0019342 164.3119 195.8709 15.01526983 46793
2026-04-01T12:34:55.956000,97.6210,0.00193560,0.00152720000000,1 64157U 25112M   26091.52425875  .00019818  00000-0  15272-2 0  9996,2 64157  97.6210 144.0309 0019356 165.3592 194.8197 15.01508539 46743
2026-04-01T04:35:06.711360,97.6212,0.00193060,0.00138980000000,1 64157U 25112M   26091.19104990  .00018016  00000-0  13898-2 0  9992,2 64157  97.6212 143.7040 0019306 166.3531 193.8220 15.01491154 46696
2026-04-01T04:35:06.711360,97.6212,0.00193062,0.00138981060000,1 64157U 25112M   26091.19104990  .00018016  00000-0  13898-2 0  9992,2 64157  97.6212 143.7040 0019306 166.3531 193.8220 15.01491154 46696
2026-03-31T22:11:15.172224,97.6214,0.00193129,0.00185610230000,1 64157U 25112M   26090.92448116  .00024094  00000-0  18561-2 0  9998,2 64157  97.6214 143.4424 0019313 167.1122 193.0600 15.01479356 46654
2026-03-31T20:35:17.227392,97.6215,0.00193190,0.00183350000000,1 64157U 25112M   26090.85783828  .00023797  00000-0  18335-2 0  9990,2 64157  97.6215 143.3769 0019319 167.3257 192.8457 15.01476057 46644
2026-03-30T17:23:50.386272,97.6225,0.00192537,0.00170717150000,1 64157U 25112M   26089.72488873  .00022108  00000-0  17072-2 0  9998,2 64157  97.6225 142.2646 0019254 170.5427 189.6163 15.01409847 46472
2026-03-30T09:21:39.963168,97.6021,0.00011880,0.00107210000000,1 64157U 25112M   26089.39004587  .00015448  00000-0  10721-2 0  9990,2 64157  97.6021 141.9401 0001188 105.2985 254.8373 15.05666049 46428
2026-03-30T09:21:39.963168,97.6021,0.00011884,0.00107207550000,1 64157U 25112M   26089.39004587  .00015448  00000-0  10721-2 0  9990,2 64157  97.6021 141.9401 0001188 105.2985 254.8373 15.05666049 46428
2026-03-30T02:58:47.354016,97.6023,0.00006950,0.00334960000000,1 64157U 25112M   26089.12415919  .00048778  00000-0  33496-2 0  9992,2 64157  97.6023 141.6766 0000695 125.5852 234.5440 15.05784161 46382
2026-03-30T02:58:47.354016,97.6023,0.00006945,0.00334957720000,1 64157U 25112M   26089.12415919  .00048778  00000-0  33496-2 0  9992,2 64157  97.6023 141.6766 0000695 125.5852 234.5440 15.05784161 46382
2026-03-29T04:39:04.269024,97.6027,0.00012030,0.00035134000000,1 64157U 25112M   26088.19379941  .00005013  00000-0  35134-3 0  9999,2 64157  97.6027 140.7595 0001203  95.6248 264.5115 15.05658161 46245
2026-03-28T22:16:16.370400,97.6028,0.00011903,0.00016507467000,1 64157U 25112M   26087.92796725  .00002322  00000-0  16507-3 0  9995,2 64157  97.6028 140.4975 0001190  96.3272 263.8090 15.05652003 46204
2026-03-28T20:40:34.378464,97.6028,0.00012280,0.00023568000000,1 64157U 25112M   26087.86150901  .00003342  00000-0  23568-3 0  9996,2 64157  97.6028 140.4320 0001228  95.9284 264.2082 15.05653780 46195
2026-03-28T14:17:46.381344,97.6028,0.00012022,0.00012619591000,1 64157U 25112M   26087.59567571  .00001761  00000-0  12620-3 0  9991,2 64157  97.6028 140.1700 0001202  96.0678 264.0686 15.05650953 46158
2026-03-28T11:06:22.343040,97.6029,0.00012000,0.00016979000000,1 64157U 25112M   26087.46275860  .00002390  00000-0  16979-3 0  9994,2 64157  97.6029 140.0389 0001200  95.9025 264.2338 15.05652511 46139
2026-03-28T04:43:34.296672,97.6028,0.00012350,0.00023059000000,1 64157U 25112M   26087.19692473  .00003269  00000-0  23059-3 0  9990,2 64157  97.6028 139.7770 0001235  95.4317 264.7050 15.05656327 46094
2026-03-28T04:43:34.296672,97.6028,0.00012346,0.00023059088000,1 64157U 25112M   26087.19692473  .00003269  00000-0  23059-3 0  9990,2 64157  97.6028 139.7770 0001235  95.4317 264.7050 15.05656327 46094
2026-03-27T20:45:04.398336,97.6029,0.00012290,0.00010566000000,1 64157U 25112M   26086.86463424  .00001464  00000-0  10566-3 0  9999,2 64157  97.6029 139.4495 0001229  95.8356 264.3011 15.05650616 46049
2026-03-27T20:45:04.398336,97.6029,0.00012295,0.00010566303000,1 64157U 25112M   26086.86463424  .00001464  00000-0  10566-3 0  9999,2 64157  97.6029 139.4495 0001229  95.8356 264.3011 15.05650616 46049
2026-03-27T17:33:40.389408,97.6028,0.00012220,0.00009505100000,1 64157U 25112M   26086.73171747  .00001311  00000-0  95051-4 0  9993,2 64157  97.6028 139.3185 0001222  95.6513 264.4854 15.05650542 46021
2026-03-27T14:22:16.290624,97.6029,0.00010844,0.00016666939000,1 64157U 25112M   26086.59879966  .00002345  00000-0  16667-3 0  9998,2 64157  97.6029 139.1877 0001084  94.2939 265.8411 15.05654387 46004
2026-03-27T06:23:46.319712,97.6029,0.00012505,0.00012495178000,1 64157U 25112M   26086.26650833  .00001743  00000-0  12495-3 0  9998,2 64157  97.6029 138.8599 0001250  98.2977 261.8392 15.05652777 45950
2026-03-27T04:48:04.318272,97.6031,0.00012200,0.00017165000000,1 64157U 25112M   26086.20004998  .00002417  00000-0  17165-3 0  9995,2 64157  97.6031 138.7945 0001220  97.1945 262.9421 15.05654989 45948
2026-03-26T14:26:46.366656,97.6028,0.00012067,0.00020474409000,1 64157U 25112M   26085.60192554  .00002895  00000-0  20474-3 0  9991,2 64157  97.6028 138.2047 0001207  92.6959 267.4406 15.05655543 45852
2026-03-26T14:26:46.365792,97.6028,0.00012070,0.00020474000000,1 64157U 25112M   26085.60192553  .00002895  00000-0  20474-3 0  9990,2 64157  97.6028 138.2047 0001207  92.6959 267.4406 15.05655543 45852
2026-03-26T03:16:52.374720,97.6026,0.00012424,0.00023005354000,1 64157U 25112M   26085.13671730  .00003261  00000-0  23005-3 0  9998,2 64157  97.6026 137.7462 0001242  95.3309 264.8060 15.05656709 45787
2026-03-26T03:16:52.373856,97.6026,0.00012420,0.00023005000000,1 64157U 25112M   26085.13671729  .00003261  00000-0  23005-3 0  9996,2 64157  97.6026 137.7462 0001242  95.3309 264.8060 15.05656709 45787
2026-03-25T20:54:04.499424,97.6025,0.00012282,0.00017735917000,1 64157U 25112M   26084.87088541  .00002500  00000-0  17736-3 0  9999,2 64157  97.6025 137.4841 0001228  94.7064 265.4303 15.05653747 45741
2026-03-25T14:31:16.505760,97.6025,0.00012293,0.00022480231000,1 64157U 25112M   26084.60505215  .00003185  00000-0  22480-3 0  9994,2 64157  97.6025 137.2222 0001229  94.4657 265.6711 15.05654620 45700
2026-03-25T14:31:16.504896,97.6025,0.00012290,0.00022480000000,1 64157U 25112M   26084.60505214  .00003185  00000-0  22480-3 0  9993,2 64157  97.6025 137.2222 0001229  94.4657 265.6711 15.05654620 45700
2026-03-24T20:58:34.649760,97.6024,0.00012225,0.00033867760000,1 64157U 25112M   26083.87401215  .00004830  00000-0  33868-3 0  9997,2 64157  97.6024 136.5015 0001223  92.7268 267.4099 15.05652881 45597
2026-03-24T09:48:40.707072,97.6024,0.00012020,0.00037858000000,1 64157U 25112M   26083.40880448  .00005406  00000-0  37858-3 0  9998,2 64157  97.6024 136.0428 0001202  91.1530 268.9834 15.05649652 45520
2026-03-24T03:25:52.696992,97.6024,0.00011818,0.00041826875000,1 64157U 25112M   26083.14297103  .00005979  00000-0  41827-3 0  9995,2 64157  97.6024 135.7807 0001182  90.6110 269.5253 15.05647819 45482
2026-03-23T21:03:04.639392,97.6022,0.00011620,0.00037721194000,1 64157U 25112M   26082.87713703  .00005386  00000-0  37721-3 0  9993,2 64157  97.6022 135.5186 0001162  90.5386 269.5974 15.05645664 45442
2026-03-23T09:53:10.306176,97.6036,0.00011340,0.00016650000000,1 64157U 25112M   26082.41192484  .00002342  00000-0  16650-3 0  9997,2 64157  97.6036 135.0603 0001134  92.5870 267.5486 15.05647277 45375
2026-03-22T21:07:34.107168,97.6027,0.00011695,-0.00003171616100,1 64157U 25112M   26081.88025587 -.00000518  00000-0 -31716-4 0  9992,2 64157  97.6027 134.5360 0001170  90.6429 269.4931 15.05643257 45299
2026-03-22T01:59:09.649248,97.6024,0.00011008,0.00034531653000,1 64157U 25112M   26081.08275057  .00004927  00000-0  34532-3 0  9997,2 64157  97.6024 133.7494 0001101  96.4740 263.6612 15.05662055 45175
2026-03-21T21:12:03.807360,97.6024,0.00011704,0.00039464066000,1 64157U 25112M   26080.88337740  .00005640  00000-0  39464-3 0  9994,2 64157  97.6024 133.5529 0001170  94.6949 265.4411 15.05660679 45143
2026-03-21T10:02:09.729888,97.6027,0.00010285,0.00044497458000,1 64157U 25112M   26080.41816817  .00006368  00000-0  44497-3 0  9990,2 64157  97.6027 133.0946 0001029  96.8471 263.2872 15.05662675 45078
2026-03-21T03:39:21.820896,97.6026,0.00010162,0.00045296715000,1 64157U 25112M   26080.15233589  .00006483  00000-0  45297-3 0  9997,2 64157  97.6026 132.8324 0001016  97.4136 262.7206 15.05661938 45037
2026-03-20T21:16:33.996576,97.6025,0.00010032,0.00034623799000,1 64157U 25112M   26079.88650459  .00004940  00000-0  34624-3 0  9992,2 64157  97.6025 132.5702 0001003  96.4886 263.6455 15.05658428 44990
2026-03-20T10:06:40.085856,97.6027,0.00009596,0.00019448085000,1 64157U 25112M   26079.42129729  .00002747  00000-0  19448-3 0  9993,2 64157  97.6027 132.1116 0000960  97.7005 262.4331 15.05653197 44926
2026-03-20T10:06:40.084992,97.6027,0.00009600,0.00019448000000,1 64157U 25112M   26079.42129728  .00002747  00000-0  19448-3 0  9992,2 64157  97.6027 132.1115 0000960  97.7005 262.4331 15.05653196 44924
2026-03-20T03:43:52.034304,97.6026,0.00009498,0.00020302157000,1 64157U 25112M   26079.15546336  .00002870  00000-0  20302-3 0  9998,2 64157  97.6026 131.8494 0000950  98.6090 261.5245 15.05653925 44881
2026-03-20T03:43:52.032576,97.6026,0.00009500,0.00020302000000,1 64157U 25112M   26079.15546334  .00002870  00000-0  20302-3 0  9996,2 64157  97.6026 131.8494 0000950  98.6090 261.5245 15.05653925 44881
2026-03-19T16:33:58.061376,97.6026,0.00009240,0.00020226000000,1 64157U 25112M   26078.69025534  .00002859  00000-0  20226-3 0  9990,2 64157  97.6026 131.3908 0000924  97.5519 262.5812 15.05653814 44812
